[{"OBJECT_NAME":"GYEONGGISAT-1","OBJECT_ID":"2025-276DK","EPOCH":"2026-03-09T18:01:52.501440","MEAN_MOTION":15.19586974,"ECCENTRICITY":0.00014169,"INCLINATION":97.4305,"RA_OF_ASC_NODE":144.1952,"ARG_OF_PERICENTER":168.8338,"MEAN_ANOMALY":191.2928,"EPHEMERIS_TYPE":0,"CLASSIFICATION_TYPE":"U","NORAD_CAT_ID":66771,"ELEMENT_SET_NO":999,"REV_AT_EPOCH":1533,"BSTAR":0.00034251892,"MEAN_MOTION_DOT":7.224e-5,"MEAN_MOTION_DDOT":0},{"OBJECT_NAME":"SITRO-AIS-57","OBJECT_ID":"2025-313J","EPOCH":"2026-03-09T21:19:15.458304","MEAN_MOTION":15.21278824,"ECCENTRICITY":0.00157719,"INCLINATION":97.3995,"RA_OF_ASC_NODE":145.0956,"ARG_OF_PERICENTER":356.0145,"MEAN_ANOMALY":4.0962,"EPHEMERIS_TYPE":0,"CLASSIFICATION_TYPE":"U","NORAD_CAT_ID":67256,"ELEMENT_SET_NO":999,"REV_AT_EPOCH":1084,"BSTAR":0.00055394677,"MEAN_MOTION_DOT":0.00012366,"MEAN_MOTION_DDOT":0}]
